134P/Kowal-Vavrova,e,4.3491,202.0834,18.8069,6.252522,0.0630407,0.58772676,110.5653,03/11.0/2019,2000,g 11.5,4.0
# From MPC 92985
135P/Shoemaker-Levy,e,6.0628,213.0738,22.1557,3.804945,0.1327949,0.29577625,210.9605,03/11.0/2019,2000,g  7.0,8.0
# From MPC101100
136P/Mueller,e,9.4200,137.4347,224.9630,4.198461,0.1145694,0.29141098,116.2321,03/11.0/2019,2000,g 11.0,4.0
# From MPC 75719
137P/Shoemaker-Levy,e,4.8539,233.0807,141.0143,4.519505,0.1025812,0.57291558,8.9873,03/11.0/2019,2000,g 11.0,4.0
# From MPC102101
138P/Shoemaker-Levy,e,10.0897,309.3322,95.6156,3.623560,0.1428897,0.53007659,352.4602,03/11.0/2019,2000,g 15.0,6.0
# From MPC108598
139P/Vaisala-Oterma,e,2.3333,242.2099,165.9569,4.528175,0.1022867,0.24612764,46.6204,03/11.0/2019,2000,g  9.5,4.0
# From MPC 92985
140P/Bowell-Skiff,e,3.8227,343.3613,172.9623,6.443202,0.0602631,0.69118072,79.0084,03/11.0/2019,2000,g 11.5,6.0
# From MPC105242
141P/Machholz,e,13.9923,241.8664,153.6849,3.051663,0.1848839,0.73751946,240.7924,03/11.0/2019,2000,g 12.0,12.0
# From MPC 71683
142P/Ge-Wang,e,12.2567,176.2382,174.1866,4.986036,0.0885260,0.49821720,289.6251,03/11.0/2019,2000,g  8.5,6.0
# From MPC 94676
143P/Kowal-Mrkos,e,4.6976,245.3002,320.7274,4.295879,0.1106945,0.41087359,34.1105,03/11.0/2019,2000,g 13.5,2.0
# From MPC104795
144P/Kushida,e,4.1758,245.4572,215.4357,3.831936,0.1313943,0.63623734,120.7371,03/11.0/2019,2000,g  8.5,8.0
# From MPC108598
145P/Shoemaker-Levy,e,11.2603,26.8028,10.3235,4.143099,0.1168735,0.54057676,65.0074,03/11.0/2019,2000,g 13.5,4.0
# From MPC 10028
146P/Shoemaker-LINEAR,e,23.0738,53.4517,316.9163,4.035462,0.1215806,0.64591290,119.6473,03/11.0/2019,2000,g 15.0,4.0
# From MPC 75720
147P/Kushida-Muramatsu,e,2.3798,93.3579,350.2175,3.854909,0.1302215,0.27068101,143.3805,03/11.0/2019,2000,g 14.0,4.0
# From MPC 89730
148P/Anderson-LINEAR,e,3.6878,89.7142,6.4556,3.664044,0.1405281,0.54178008,191.9303,03/11.0/2019,2000,g 16.0,2.0
# From MPC 75720
149P/Mueller,e,29.7708,145.2337,43.7997,4.316482,0.1099029,0.38988718,2.4175,03/11.0/2019,2000,g  8.0,8.0
# From MPC 75720
150P/LONEOS,e,18.5085,272.4089,245.6262,3.880736,0.1289238,0.54655720,123.7028,03/11.0/2019,2000,g 13.5,4.0
# From MPC 95214
151P/Helin,e,4.7231,143.1420,216.1061,5.768009,0.0711484,0.57214572,88.9375,03/11.0/2019,2000,g 10.0,6.0
# From MPC 79346
152P/Helin-Lawrence,e,9.8797,91.8700,163.6665,4.484853,0.1037724,0.30911888,252.2414,03/11.0/2019,2000,g 11.5,4.0
# From MPC 46101
153P/Ikeya-Zhang,e,27.7119,93.0509,35.1768,51.15806,0.0026936,0.98979538,0.0000,03/16.8406/2002,2000,g  7.0,4.0
# From MPC 87068
154P/Brewington,e,17.6228,342.9831,47.9133,4.804433,0.0935924,0.67469548,179.8503,03/11.0/2019,2000,g  2.5,12.0
# From MPC 75720
155P/Shoemaker,e,6.3958,97.1992,14.6806,6.589146,0.0582721,0.72657460,345.4773,03/11.0/2019,2000,g 10.0,4.8
# From MPC105242
156P/Russell-LINEAR,e,17.4327,35.8577,359.9714,3.464248,0.1528588,0.61691008,265.7433,03/11.0/2019,2000,g 15.5,2.0
# From MPC104795
157P/Tritton,e,7.5143,297.8706,150.5243,3.389862,0.1579178,0.61053810,157.6694,03/11.0/2019,2000,g 10.0,4.0
# From MPC 10028
158P/Kowal-LINEAR,e,7.8657,136.6382,240.0672,4.799977,0.0937228,0.01819156,218.4502,03/11.0/2019,2000,g  9.0,4.0
# From MPC 75721
159P/LONEOS,e,23.4619,55.0230,4.7235,5.860943,0.0694629,0.38151073,20.3136,03/11.0/2019,2000,g 10.0,4.0
# From MPC102101
160P/LINEAR,e,15.6109,333.4000,12.6012,3.774691,0.1343947,0.52649499,324.2114,03/11.0/2019,2000,g 15.5,2.0
# From MPC 75721
161P/Hartley-IRAS,e,95.6678,1.3494,46.9098,7.726936,0.0458874,0.83455811,230.5925,03/11.0/2019,2000,g  8.5,6.0
# From MPC105242
162P/Siding Spring,e,27.6318,31.0426,357.1018,3.088830,0.1815570,0.58387754,244.2618,03/11.0/2019,2000,g 12.0,4.0
# From MPC102101
163P/NEAT,e,12.7076,102.0925,349.7115,3.770926,0.1345960,0.45197574,340.1783,03/11.0/2019,2000,g 14.5,4.0
# From MPC106349
164P/Christensen,e,16.2532,88.3067,325.9129,3.660503,0.1407320,0.53964903,39.9152,03/11.0/2019,2000,g 11.0,4.0
# From MPC 75721
165P/LINEAR,e,15.9026,0.6408,126.4031,17.91930,0.0129934,0.61539518,89.1313,03/11.0/2019,2000,g 11.5,2.0
# From MPC 75722
166P/NEAT,e,15.3576,64.5382,321.5995,13.85336,0.0191149,0.38052154,117.7335,03/11.0/2019,2000,g  5.5,4.0
# From MPC 75722
167P/CINEOS,e,19.1168,295.6856,343.7782,16.16015,0.0151718,0.27327467,99.0843,03/11.0/2019,2000,g  9.5,2.0
# From MPC102101
168P/Hergenrother,e,21.6113,355.4739,14.9891,3.581145,0.1454358,0.62053420,338.6005,03/11.0/2019,2000,g 15.5,4.0
# From MPC 94676
169P/NEAT,e,11.2948,176.0855,218.0881,2.601930,0.2348338,0.76796195,74.0722,03/11.0/2019,2000,g 16.0,2.0
# From MPC 89012
170P/Christensen,e,10.1246,142.9164,225.7301,4.198190,0.1145805,0.30311444,187.6527,03/11.0/2019,2000,g 12.0,4.0
# From MPC102102
171P/Spahr,e,21.9335,101.6959,347.1473,3.558442,0.1468298,0.50193826,8.2652,03/11.0/2019,2000,g 13.5,4.0
# From MPC 93588
172P/Yeung,e,11.2367,30.8899,209.2439,4.208065,0.1141775,0.20662516,83.0511,03/11.0/2019,2000,g 13.0,4.0
# From MPC 75722
173P/Mueller,e,16.4966,100.4055,29.5257,5.696678,0.0724889,0.26063242,286.4844,03/11.0/2019,2000,g  7.5,4.0
# From MPC 92985
174P/Echeclus,e,4.3435,173.3081,162.8015,10.68962,0.0282008,0.45636716,40.0300,03/11.0/2019,2000,g  9.4,2.0
# From MPC102102
175P/Hergenrother,e,6.0770,123.5334,56.1819,3.428133,0.1552807,0.43224268,328.3602,03/11.0/2019,2000,g 14.0,4.0
# From MPC 88331
176P/LINEAR,e,0.2347,345.8784,35.2564,3.193927,0.1726699,0.19275587,125.9716,03/11.0/2019,2000,g 15.1,2.0
# From MPC 75723
177P/Barnard,e,31.3324,272.3494,60.2089,24.35146,0.0082019,0.95473144,37.5675,03/11.0/2019,2000,g 15.0,4.0
# From MPC105242
178P/Hug-Bell,e,11.0831,102.8731,297.6016,3.636566,0.1421238,0.48180988,289.8868,03/11.0/2019,2000,g 13.5,4.0
# From MPC 75723
179P/Jedicke,e,19.8920,115.5203,296.2778,5.948212,0.0679398,0.30533953,280.3068,03/11.0/2019,2000,g  2.5,8.0
# From MPC 10028
180P/NEAT,e,16.8685,84.5545,94.9286,3.859273,0.1300007,0.35397472,154.0413,03/11.0/2019,2000,g 11.0,4.0
# From MPC 89012
181P/Shoemaker-Levy,e,17.4853,35.4112,336.2858,3.869416,0.1294899,0.70020671,225.9283,03/11.0/2019,2000,g 11.5,4.0
# From MPC 88331
182P/LONEOS,e,16.2476,72.7929,53.7890,2.958941,0.1936420,0.66020516,135.2089,03/11.0/2019,2000,g 18.0,4.0
# From MPC110085
183P/Korlevic-Juric,e,18.7191,5.7958,161.9583,4.501164,0.1032088,0.13918778,49.5166,03/11.0/2019,2000,g 12.5,2.0
# From MPC105242
184P/Lovas,e,4.5776,173.4386,186.4705,3.788947,0.1336369,0.55206764,280.4706,03/11.0/2019,2000,g 13.5,4.0
# From MPC109593
185P/Petriew,e,13.9940,214.0991,181.9093,3.100595,0.1805247,0.69880566,73.5413,03/11.0/2019,2000,g 15.0,4.0
# From MPC 10028
186P/Garradd,e,28.4077,327.0914,283.7652,5.008726,0.0879252,0.12363396,355.1789,03/11.0/2019,2000,g  7.5,4.0
# From MPC104795
187P/LINEAR,e,13.6270,109.9192,132.8607,4.585339,0.1003799,0.15389572,29.2873,03/11.0/2019,2000,g  9.0,4.0
# From MPC106349
188P/LINEAR-Mueller,e,10.5133,358.9624,26.6712,4.379285,0.1075473,0.41469008,80.9093,03/11.0/2019,2000,g 11.5,4.0
# From MPC106349
189P/NEAT,e,20.0712,281.7407,16.2323,2.947502,0.1947704,0.58848040,113.3470,03/11.0/2019,2000,g 19.0,4.0
# From MPC 75724
190P/Mueller,e,2.1731,335.5544,50.3561,4.238044,0.1129681,0.52025059,120.6152,03/11.0/2019,2000,g 13.0,4.0
# From MPC 92277
191P/McNaught,e,8.8095,98.3666,284.0054,3.638494,0.1420109,0.39209730,255.3901,03/11.0/2019,2000,g 13.0,4.0
# From MPC 75724
192P/Shoemaker-Levy,e,24.5151,51.6692,312.8679,6.479111,0.0597628,0.77214170,246.2401,03/11.0/2019,2000,g 15.0,4.0
# From MPC 91618
193P/LINEAR-NEAT,e,10.6870,335.1949,8.3093,3.574323,0.1458523,0.39377422,228.8505,03/11.0/2019,2000,g 14.0,4.0
# From MPC 98566
194P/LINEAR,e,11.1405,351.8554,130.6239,3.991450,0.1235970,0.57605191,136.4418,03/11.0/2019,2000,g 16.0,4.0
# From MPC 75724
195P/Hill,e,36.3431,243.0833,249.6502,6.492423,0.0595791,0.31383915,220.9636,03/11.0/2019,2000,g  8.5,4.0
# From MPC 92985
196P/Tichy,e,19.3267,24.2434,12.4239,3.793953,0.1333725,0.42951120,182.6761,03/11.0/2019,2000,g 13.5,4.0
# From MPC 94676
197P/LINEAR,e,25.5566,66.3929,188.7058,2.866370,0.2030980,0.63012096,82.4871,03/11.0/2019,2000,g 16.5,2.0
# From MPC 65937
198P/ODAS,e,1.3379,358.2752,69.2952,3.602682,0.1441336,0.44321180,12.5542,03/11.0/2019,2000,g 12.5,4.0
# From MPC 75725
199P/Shoemaker,e,24.9350,92.3991,191.4744,5.903593,0.0687115,0.50569831,249.3431,03/11.0/2019,2000,g 10.0,4.0
# From MPC111774
200P/Larsen,e,12.1058,234.8008,133.9759,4.932731,0.0899649,0.33155817,347.4514,03/11.0/2019,2000,g  9.0,4.0
# From MPC 93588
201P/LONEOS,e,6.5336,31.7474,28.4562,3.406496,0.1567625,0.63507360,233.9360,03/11.0/2019,2000,g 14.0,4.0
# From MPC103849
202P/Scotti,e,2.1438,193.2788,260.2886,3.842732,0.1308410,0.32749641,129.8907,03/11.0/2019,2000,g 13.5,4.0
# From MPC112393
203P/Korlevic,e,2.9732,290.3554,154.9397,4.668651,0.0977050,0.31472597,324.7873,03/11.0/2019,2000,g 14.5,2.0
# From MPC 98566
204P/LINEAR-NEAT,e,6.6147,108.8347,354.8533,3.643364,0.1417263,0.47573999,167.8457,03/11.0/2019,2000,g 14.0,4.0
# From MPC 98566
205P/Giacobini,e,15.2919,179.6024,154.1593,3.544094,0.1477223,0.56729843,206.3847,03/11.0/2019,2000,g 13.0,4.0
# From MPC 75725
206P/Barnard-Boattini,e,33.7041,202.5305,189.3769,3.486070,0.1514258,0.55177066,250.3008,03/11.0/2019,2000,g 19.0,4.0
# From MPC 75725
207P/NEAT,e,10.1549,200.4111,271.2794,3.869426,0.1294894,0.75885318,127.2643,03/11.0/2019,2000,g 16.0,4.0
# From MPC101100
208P/McMillan,e,4.4079,36.3970,310.3822,4.049466,0.1209504,0.37255202,118.8133,03/11.0/2019,2000,g 12.5,4.0
# From MPC 90771
209P/LINEAR,e,21.2586,62.7717,152.4980,2.961311,0.1934096,0.67327950,341.8572,03/11.0/2019,2000,g 17.0,2.0
# From MPC105242
210P/Christensen,e,10.2569,93.8290,345.8480,3.169442,0.1746746,0.83292457,291.1771,03/11.0/2019,2000,g 13.5,4.0
# From MPC 96868
211P/Hill,e,18.9098,117.1311,4.1673,3.552416,0.1472036,0.34101604,167.6922,03/11.0/2019,2000,g 12.5,4.0
# From MPC104795
212P/NEAT,e,22.5564,98.7075,14.9089,3.905863,0.1276817,0.58240963,116.3127,03/11.0/2019,2000,g 17.0,2.0
# From MPC110085
